start=new Date('2023-06-25T00:00:00.000Z').valueOf();
sats=[{"MEAN_ELEMENT_THEORY":"SGP4","FILE":"3941659","PERIAPSIS":"538.876","EPOCH":"2023-06-24T08:30:18.039744","OBJECT_TYPE":"PAYLOAD","ARG_OF_PERICENTER":"86.8055","RCS_SIZE":"LARGE","CLASSIFICATION_TYPE":"U","MEAN_MOTION_DOT":"0.00000584","TLE_LINE2":"2 53861  53.2160  45.5708 0001262  86.8055 273.3081 15.08838868 43213","RA_OF_ASC_NODE":"45.5708","MEAN_MOTION":"15.08838868","REF_FRAME":"TEME","TLE_LINE1":"1 53861U 22114AV  23175.35437546  .00000584  00000-0  54795-4 0  9999","MEAN_MOTION_DDOT":"0.0000000000000","ECCENTRICITY":"0.00012620","INCLINATION":"53.2160","BSTAR":"0.00005479500000","TIME_SYSTEM":"UTC","DECAY_DATE":null,"APOAPSIS":"540.622","COUNTRY_CODE":"US","ELEMENT_SET_NO":"999","PERIOD":"95.438","OBJECT_NAME":"STARLINK-4781","SEMIMAJOR_AXIS":"6917.884","OBJECT_ID":"2022-114AV","REV_AT_EPOCH":"4321","LAUNCH_DATE":"2022-09-19","MEAN_ANOMALY":"273.3081","CENTER_NAME":"EARTH","NORAD_CAT_ID":"53861","SITE":"AFETR","EPHEMERIS_TYPE":"0","GP_ID":"234525389"},{"CLASSIFICATION_TYPE":"U","MEAN_MOTION_DOT":"0.00007712","RA_OF_ASC_NODE":"44.0185","TLE_LINE2":"2 53862  53.2160  44.0185 0001164  84.1167 275.9958 15.08836113 43260","MEAN_MOTION":"15.08836113","EPOCH":"2023-06-24T16:11:18.877056","PERIAPSIS":"538.952","MEAN_ELEMENT_THEORY":"SGP4","FILE":"3941922","OBJECT_TYPE":"PAYLOAD","ARG_OF_PERICENTER":"84.1167","RCS_SIZE":"LARGE","TLE_LINE1":"1 53862U 22114AW  23175.67452404  .00007712  00000-0  50214-3 0  9996","MEAN_MOTION_DDOT":"0.0000000000000","ECCENTRICITY":"0.00011640","BSTAR":"0.00050214000000","INCLINATION":"53.2160","DECAY_DATE":null,"TIME_SYSTEM":"UTC","REF_FRAME":"TEME","OBJECT_NAME":"STARLINK-4792","SEMIMAJOR_AXIS":"6917.892","APOAPSIS":"540.563","COUNTRY_CODE":"US","ELEMENT_SET_NO":"999","PERIOD":"95.438","SITE":"AFETR","CENTER_NAME":"EARTH","NORAD_CAT_ID":"53862","EPHEMERIS_TYPE":"0","GP_ID":"234532556","OBJECT_ID":"2022-114AW","REV_AT_EPOCH":"4326","LAUNCH_DATE":"2022-09-19","MEAN_ANOMALY":"275.9958"},{"MEAN_MOTION":"15.08836288","RA_OF_ASC_NODE":"44.0715","TLE_LINE2":"2 53863  53.2170  44.0715 0001151  91.7590 268.3534 15.08836288 43260","MEAN_MOTION_DOT":"0.00000541","CLASSIFICATION_TYPE":"U","RCS_SIZE":"LARGE","ARG_OF_PERICENTER":"91.7590","OBJECT_TYPE":"PAYLOAD","PERIAPSIS":"538.960","EPOCH":"2023-06-24T16:23:18.507840","FILE":"3941922","MEAN_ELEMENT_THEORY":"SGP4","DECAY_DATE":null,"TIME_SYSTEM":"UTC","INCLINATION":"53.2170","BSTAR":"0.00005210600000","ECCENTRICITY":"0.00011510","MEAN_MOTION_DDOT":"0.0000000000000","TLE_LINE1":"1 53863U 22114AX  23175.68285310  .00000541  00000-0  52106-4 0  9994","REF_FRAME":"TEME","SEMIMAJOR_AXIS":"6917.892","OBJECT_NAME":"STARLINK-4788","ELEMENT_SET_NO":"999","PERIOD":"95.438","COUNTRY_CODE":"US","APOAPSIS":"540.553","GP_ID":"234532559","EPHEMERIS_TYPE":"0","SITE":"AFETR","NORAD_CAT_ID":"53863","CENTER_NAME":"EARTH","MEAN_ANOMALY":"268.3534","LAUNCH_DATE":"2022-09-19","REV_AT_EPOCH":"4326","OBJECT_ID":"2022-114AX"},{"MEAN_ANOMALY":"278.2077","LAUNCH_DATE":"2022-09-19","REV_AT_EPOCH":"4326","OBJECT_ID":"2022-114AY","GP_ID":"234532564","EPHEMERIS_TYPE":"0","CENTER_NAME":"EARTH","NORAD_CAT_ID":"53864","SITE":"AFETR","ELEMENT_SET_NO":"999","PERIOD":"95.437","COUNTRY_CODE":"US","APOAPSIS":"540.555","SEMIMAJOR_AXIS":"6917.876","OBJECT_NAME":"STARLINK-4779","REF_FRAME":"TEME","TIME_SYSTEM":"UTC","DECAY_DATE":null,"BSTAR":"0.00027523000000","INCLINATION":"53.2158","ECCENTRICITY":"0.00011770","MEAN_MOTION_DDOT":"0.0000000000000","TLE_LINE1":"1 53864U 22114AY  23175.63030624  .00004095  00000-0  27523-3 0  9998","RCS_SIZE":"LARGE","ARG_OF_PERICENTER":"81.9048","OBJECT_TYPE":"PAYLOAD","FILE":"3941922","MEAN_ELEMENT_THEORY":"SGP4","PERIAPSIS":"538.927","EPOCH":"2023-06-24T15:07:38.459136","MEAN_MOTION":"15.08841453","TLE_LINE2":"2 53864  53.2158  43.7477 0001177  81.9048 278.2077 15.08841453 43267","RA_OF_ASC_NODE":"43.7477","MEAN_MOTION_DOT":"0.00004095","CLASSIFICATION_TYPE":"U"},{"LAUNCH_DATE":"2022-09-19","REV_AT_EPOCH":"4326","OBJECT_ID":"2022-114AZ","MEAN_ANOMALY":"262.1880","EPHEMERIS_TYPE":"0","NORAD_CAT_ID":"53865","CENTER_NAME":"EARTH","SITE":"AFETR","GP_ID":"234532070","COUNTRY_CODE":"US","APOAPSIS":"540.513","ELEMENT_SET_NO":"999","PERIOD":"95.438","OBJECT_NAME":"STARLINK-4785","SEMIMAJOR_AXIS":"6917.888","REF_FRAME":"TEME","ECCENTRICITY":"0.00010990","MEAN_MOTION_DDOT":"0.0000000000000","TLE_LINE1":"1 53865U 22114AZ  23175.65241400  .00000261  00000-0  34451-4 0  9997","TIME_SYSTEM":"UTC","DECAY_DATE":null,"INCLINATION":"53.2175","BSTAR":"0.00003445100000","OBJECT_TYPE":"PAYLOAD","MEAN_ELEMENT_THEORY":"SGP4","FILE":"3941923","PERIAPSIS":"538.992","EPOCH":"2023-06-24T15:39:28.569600","RCS_SIZE":"LARGE","ARG_OF_PERICENTER":"97.9237","MEAN_MOTION_DOT":"0.00000261","CLASSIFICATION_TYPE":"U","MEAN_MOTION":"15.08837613","RA_OF_ASC_NODE":"43.8795","TLE_LINE2":"2 53865  53.2175  43.8795 0001099  97.9237 262.1880 15.08837613 43268"},{"EPHEMERIS_TYPE":"0","NORAD_CAT_ID":"53866","CENTER_NAME":"EARTH","SITE":"AFETR","GP_ID":"234512058","REV_AT_EPOCH":"4340","LAUNCH_DATE":"2022-09-19","OBJECT_ID":"2022-114BA","MEAN_ANOMALY":"264.6201","OBJECT_NAME":"STARLINK-4762","SEMIMAJOR_AXIS":"6917.895","COUNTRY_CODE":"US","APOAPSIS":"540.501","ELEMENT_SET_NO":"999","PERIOD":"95.438","ECCENTRICITY":"0.00010710","MEAN_MOTION_DDOT":"0.0000000000000","TLE_LINE1":"1 53866U 22114BA  23174.76006477 -.00000169  00000-0  74761-5 0  9999","TIME_SYSTEM":"UTC","DECAY_DATE":null,"INCLINATION":"53.2172","BSTAR":"0.00000747610000","REF_FRAME":"TEME","MEAN_MOTION_DOT":"-0.00000169","CLASSIFICATION_TYPE":"U","MEAN_MOTION":"15.08835127","RA_OF_ASC_NODE":"28.2986","TLE_LINE2":"2 53866  53.2172  28.2986 0001071  95.4913 264.6201 15.08835127 43407","OBJECT_TYPE":"PAYLOAD","MEAN_ELEMENT_THEORY":"SGP4","FILE":"3941079","PERIAPSIS":"539.019","EPOCH":"2023-06-23T18:14:29.596128","RCS_SIZE":"LARGE","ARG_OF_PERICENTER":"95.4913"},{"ELEMENT_SET_NO":"999","PERIOD":"95.438","APOAPSIS":"540.437","COUNTRY_CODE":"US","SEMIMAJOR_AXIS":"6917.898","OBJECT_NAME":"STARLINK-4793","MEAN_ANOMALY":"274.0861","OBJECT_ID":"2022-114BB","LAUNCH_DATE":"2022-09-19","REV_AT_EPOCH":"4324","GP_ID":"234512153","SITE":"AFETR","NORAD_CAT_ID":"53867","CENTER_NAME":"EARTH","EPHEMERIS_TYPE":"0","ARG_OF_PERICENTER":"86.0243","RCS_SIZE":"LARGE","PERIAPSIS":"539.088","EPOCH":"2023-06-23T14:46:28.322112","FILE":"3941079","MEAN_ELEMENT_THEORY":"SGP4","OBJECT_TYPE":"PAYLOAD","RA_OF_ASC_NODE":"38.8007","TLE_LINE2":"2 53867  53.2171  38.8007 0000975  86.0243 274.0861 15.08834285 43245","MEAN_MOTION":"15.08834285","CLASSIFICATION_TYPE":"U","MEAN_MOTION_DOT":"0.00000264","REF_FRAME":"TEME","BSTAR":"0.00003467000000","INCLINATION":"53.2171","DECAY_DATE":null,"TIME_SYSTEM":"UTC","TLE_LINE1":"1 53867U 22114BB  23174.61560558  .00000264  00000-0  34670-4 0  9998","MEAN_MOTION_DDOT":"0.0000000000000","ECCENTRICITY":"0.00009750"},{"MEAN_MOTION_DOT":"0.00000516","CLASSIFICATION_TYPE":"U","MEAN_MOTION":"15.08851900","RA_OF_ASC_NODE":"26.6438","TLE_LINE2":"2 53868  53.2179  26.6438 0001128  89.0596 271.0525 15.08851900 43452","OBJECT_TYPE":"PAYLOAD","MEAN_ELEMENT_THEORY":"SGP4","FILE":"3941660","PERIAPSIS":"538.929","EPOCH":"2023-06-24T01:28:57.328032","RCS_SIZE":"LARGE","ARG_OF_PERICENTER":"89.0596","ECCENTRICITY":"0.00011280","MEAN_MOTION_DDOT":"0.0000000000000","TLE_LINE1":"1 53868U 22114BC  23175.06177463  .00000516  00000-0  50465-4 0  9998","TIME_SYSTEM":"UTC","DECAY_DATE":null,"BSTAR":"0.00005046500000","INCLINATION":"53.2179","REF_FRAME":"TEME","OBJECT_NAME":"STARLINK-4789","SEMIMAJOR_AXIS":"6917.844","COUNTRY_CODE":"US","APOAPSIS":"540.489","PERIOD":"95.437","ELEMENT_SET_NO":"999","EPHEMERIS_TYPE":"0","CENTER_NAME":"EARTH","NORAD_CAT_ID":"53868","SITE":"AFETR","GP_ID":"234525409","REV_AT_EPOCH":"4345","LAUNCH_DATE":"2022-09-19","OBJECT_ID":"2022-114BC","MEAN_ANOMALY":"271.0525"},{"PERIOD":"95.438","ELEMENT_SET_NO":"999","COUNTRY_CODE":"US","APOAPSIS":"540.413","SEMIMAJOR_AXIS":"6917.883","OBJECT_NAME":"STARLINK-4810","MEAN_ANOMALY":"283.2259","LAUNCH_DATE":"2022-09-19","REV_AT_EPOCH":"4335","OBJECT_ID":"2022-114BD","GP_ID":"234525404","EPHEMERIS_TYPE":"0","CENTER_NAME":"EARTH","NORAD_CAT_ID":"53869","SITE":"AFETR","RCS_SIZE":"LARGE","ARG_OF_PERICENTER":"76.8841","OBJECT_TYPE":"PAYLOAD","MEAN_ELEMENT_THEORY":"SGP4","FILE":"3941660","PERIAPSIS":"539.082","EPOCH":"2023-06-24T07:22:39.264096","MEAN_MOTION":"15.08839293","TLE_LINE2":"2 53869  53.2179  35.2989 0000962  76.8841 283.2259 15.08839293 43351","RA_OF_ASC_NODE":"35.2989","MEAN_MOTION_DOT":"-0.00000251","CLASSIFICATION_TYPE":"U","REF_FRAME":"TEME","TIME_SYSTEM":"UTC","DECAY_DATE":null,"INCLINATION":"53.2179","BSTAR":"0.00000228950000","ECCENTRICITY":"0.00009620","MEAN_MOTION_DDOT":"0.0000000000000","TLE_LINE1":"1 53869U 22114BD  23175.30739889 -.00000251  00000-0  22895-5 0  9996"},{"APOAPSIS":"540.498","COUNTRY_CODE":"US","PERIOD":"95.437","ELEMENT_SET_NO":"999","OBJECT_NAME":"STARLINK-4732","SEMIMAJOR_AXIS":"6917.857","OBJECT_ID":"2022-114BE","REV_AT_EPOCH":"4353","LAUNCH_DATE":"2022-09-19","MEAN_ANOMALY":"277.5552","CENTER_NAME":"EARTH","NORAD_CAT_ID":"53870","SITE":"AFETR","EPHEMERIS_TYPE":"0","GP_ID":"234532067","MEAN_ELEMENT_THEORY":"SGP4","FILE":"3941923","EPOCH":"2023-06-24T14:17:21.648480","PERIAPSIS":"538.946","OBJECT_TYPE":"PAYLOAD","ARG_OF_PERICENTER":"82.5567","RCS_SIZE":"LARGE","CLASSIFICATION_TYPE":"U","MEAN_MOTION_DOT":"0.00003115","TLE_LINE2":"2 53870  53.2152  24.2753 0001122  82.5567 277.5552 15.08847645 43531","RA_OF_ASC_NODE":"24.2753","MEAN_MOTION":"15.08847645","REF_FRAME":"TEME","MEAN_MOTION_DDOT":"0.0000000000000","TLE_LINE1":"1 53870U 22114BE  23175.59538945  .00003115  00000-0  21364-3 0  9998","ECCENTRICITY":"0.00011220","INCLINATION":"53.2152","BSTAR":"0.00021364000000","TIME_SYSTEM":"UTC","DECAY_DATE":null}];
